SatCatId,ObjectName,LaunchYear,OrbitalPeriod,LaunchMass,StatusCode,Inclination,Status,UcsData,OrbitClassEstimated,LaunchSiteCountry,Owner,UseType,Purpose,LaunchVehicleClass,TLE1,TLE2,MeanMotion,Eccentricity,OrbitClass
47941,WILDTRACKCUBE-SIMBA,2021,95.17,1.0,+,97.49,Active,1,LEO,Kazakhstan,Belgium,Civil,Communications,Soyuz,1 47941U 21022K   23222.40934705  .00007781  00000+0  44168-3 0  9993,2 47941  97.4905 118.4977 0019909 144.5710 215.6848 15.13042779131208,15.13042779,0.0019909,LEO
47942,HIBER-3,2021,94.96,4.0,+,97.49,Active,1,LEO,Kazakhstan,Netherlands,Commercial,Technology Development,Soyuz,1 47942U 21022L   23221.25272973  .00012950  00000+0  66519-3 0  9996,2 47942  97.4872 118.4371 0018215 141.7361 218.5169 15.16478490131125,15.1647849,0.0018215,LEO
47944,ELSA-D,2021,94.92,175.0,+,97.49,Active,1,LEO,Kazakhstan,Japan,Commercial,Technology Development,Soyuz,1 47944U 21022N   23222.38914188  .00004369  00000+0  22305-3 0  9994,2 47944  97.4895 119.4113 0015951 133.9906 226.2645 15.17123417131299,15.17123417,0.0015951,LEO
47945,UNISAT-7,2021,95.24,-1.0,+,97.49,Active,0,LEO,Kazakhstan,Italy,Unknown,Unknown,Soyuz,1 47945U 21022P   23222.44589909  .00005367  00000+0  31564-3 0  9997,2 47945  97.4890 118.7430 0017771 135.8999 224.3652 15.11947982131128,15.11947982,0.0017771,LEO
47948,LACUNASAT-2B,2021,94.35,4.0,+,97.5,Active,1,LEO,Kazakhstan,UK,Commercial,Communications,Soyuz,1 47948U 21022S   23221.67457358  .00030973  00000+0  11887-2 0  9992,2 47948  97.4996 123.0821 0016774 127.6630 232.6133 15.26283730131276,15.2628373,0.0016774,LEO
47949,KEPLER-7 (C3PO),2021,94.78,9.0,+,97.49,Active,1,LEO,Kazakhstan,Canada,Commercial,Communications,Soyuz,1 47949U 21022T   23222.43733800  .00017843  00000+0  84489-3 0  9997,2 47949  97.4889 120.3141 0017925 136.5887 223.6763 15.19252614131341,15.19252614,0.0017925,LEO
47950,NANOSATC-BR2,2021,94.94,4.0,+,97.49,Active,1,LEO,Kazakhstan,Brazil,Civil,Space Science,Soyuz,1 47950U 21022U   23222.39407569  .00013636  00000+0  69533-3 0  9993,2 47950  97.4873 119.3753 0018679 140.9729 219.2856 15.16715444131283,15.16715444,0.0018679,LEO
47951,CUBESX-SIRIUS-HSE,2021,95.09,-1.0,+,97.49,Active,0,LEO,Kazakhstan,Russia/USSR,Unknown,Unknown,Soyuz,1 47951U 21022V   23222.40690482  .00010283  00000+0  56008-3 0  9992,2 47951  97.4901 118.8996 0019668 142.6836 217.5767 15.14440561131236,15.14440561,0.0019668,LEO
47952,CUBESX-HSE,2021,95.08,-1.0,+,97.49,Active,0,LEO,Kazakhstan,Russia/USSR,Unknown,Unknown,Soyuz,1 47952U 21022W   23222.44384464  .00009827  00000+0  53429-3 0  9993,2 47952  97.4905 118.9879 0019693 141.7251 218.5383 15.14513674131243,15.14513674,0.0019693,LEO
47954,KSU-CUBESAT,2021,95.02,2.0,+,97.49,Active,1,LEO,Kazakhstan,Saudi Arabia,Civil,Technology Development,Soyuz,1 47954U 21022Y   23222.13281920  .00012197  00000+0  64437-3 0  9999,2 47954  97.4908 119.1364 0018998 141.1971 219.0630 15.15489930130945,15.1548993,0.0018998,LEO
47955,KEPLER-6 (ROCINANTE),2021,94.98,9.0,+,97.49,Active,1,LEO,Kazakhstan,Canada,Commercial,Communications,Soyuz,1 47955U 21022Z   23222.44998854  .00014497  00000+0  74938-3 0  9997,2 47955  97.4897 119.5772 0019488 138.4969 221.7748 15.16207621131016,15.16207621,0.0019488,LEO
47956,CHALLENGE ONE,2021,95.07,3.0,+,97.49,Active,1,LEO,Kazakhstan,Tunisia,Commercial,Technology Development,Soyuz,1 47956U 21022AA  23222.15948125  .00009328  00000+0  50486-3 0  9991,2 47956  97.4908 118.6875 0020062 144.4998 215.7573 15.14684842130989,15.14684842,0.0020062,LEO
47957,BEESAT-6,2021,94.66,1.0,+,97.49,Active,1,LEO,Kazakhstan,Germany,Civil,Technology Development,Soyuz,1 47957U 21022AB  23221.16675419  .00020868  00000+0  93168-3 0  9991,2 47957  97.4875 119.6680 0017609 139.7336 220.5207 15.21250249130980,15.21250249,0.0017609,LEO
47959,GRBALPHA,2021,95.08,-1.0,+,97.49,Active,0,LEO,Kazakhstan,Unknown,Unknown,Unknown,Soyuz,1 47959U 21022AD  23222.42750668  .00009638  00000+0  52295-3 0  9991,2 47959  97.4905 119.0640 0019519 142.0657 218.1954 15.14596173130063,15.14596173,0.0019519,LEO
47960,ORBICRAFT-ZORKY,2021,95.03,-1.0,+,97.49,Active,0,LEO,Kazakhstan,Russia/USSR,Unknown,Unknown,Soyuz,1 47960U 21022AE  23222.42477191  .00010319  00000+0  54766-3 0  9993,2 47960  97.4936 119.5694 0019086 140.8699 219.3918 15.15370516130777,15.15370516,0.0019086,LEO
47961,3B5GSAT (SATELIOT 1),2021,94.48,4.0,+,97.5,Active,1,LEO,Kazakhstan,Spain,Commercial,Communications,Soyuz,1 47961U 21022AF  23221.67349997  .00022644  00000+0  92917-3 0  9996,2 47961  97.4957 121.7764 0016944 131.9245 228.3440 15.24108591130156,15.24108591,0.0016944,LEO
47962,STECCO,2021,94.6,-1.0,+,97.49,Active,0,LEO,Kazakhstan,Italy,Unknown,Unknown,Soyuz,1 47962U 21022AG  23222.40066591  .00020460  00000+0  88851-3 0  9991,2 47962  97.4905 122.4232 0014449 126.5232 233.7337 15.22246717130282,15.22246717,0.0014449,LEO
47964,SMOG-1,2021,94.54,-1.0,+,97.49,Active,0,LEO,Kazakhstan,Hungary,Unknown,Unknown,Soyuz,1 47964U 21022AJ  23221.30254732  .00021432  00000+0  90607-3 0  9999,2 47964  97.4915 122.0065 0016376 126.2147 234.0606 15.23121526130158,15.23121526,0.0016376,LEO
47965,VEERY-RL1,2021,94.23,1.0,+,44.98,Active,1,LEO,New Zealand,USA,Civil,Earth Observation,Electron,1 47965U 21023A   23222.18143515  .00037883  00000+0  13471-2 0  9994,2 47965  44.9786 145.2345 0014902 133.1040 227.1092 15.28324275131707,15.28324275,0.0014902,LEO
47966,CENTAURI-3 (TYVAK-0210),2021,94.61,9.0,+,45.0,Active,1,LEO,New Zealand,Australia,Commercial,Technology Development,Electron,1 47966U 21023B   23221.26792651  .00023659  00000+0  10269-2 0  9992,2 47966  44.9996 169.4542 0009644 110.3836 249.8082 15.21949037131336,15.21949037,0.0009644,LEO
47967,M2-A,2021,95.11,9.0,+,45.0,Active,1,LEO,New Zealand,Australia,Civil/Military,Technology Development,Electron,1 47967U 21023C   23222.31523263  .00007359  00000+0  41169-3 0  9994,2 47967  44.9975 176.8524 0011011 105.4053 254.8042 15.14012461131339,15.14012461,0.0011011,LEO
47968,MYRIOTA 7 (TYVAK-0152),2021,94.93,9.0,+,45.0,Active,1,LEO,New Zealand,Australia,Commercial,Technology Development,Electron,1 47968U 21023D   23221.29089260  .00015890  00000+0  80520-3 0  9998,2 47968  45.0007 175.5558 0010589 102.7250 257.4814 15.16817638131268,15.16817638,0.0010589,LEO
47969,GUNSMOKE-J 3,2021,95.07,5.0,+,45.0,Active,1,LEO,New Zealand,USA,Military,Earth Observation,Electron,1 47969U 21023E   23221.30480055  .00011922  00000+0  64624-3 0  9997,2 47969  44.9994 177.9794 0010275  91.8553 268.3502 15.14650261131233,15.14650261,0.0010275,LEO
47971,GLOBAL-9,2021,93.17,56.0,+,45.0,Active,1,LEO,New Zealand,USA,Commercial,Earth Observation,Electron,1 47971U 21023G   23222.46770944  .00005990  00000+0  12983-3 0  9996,2 47971  44.9955 290.7198 0010921 305.0387  54.9478 15.45379624134305,15.45379624,0.0010921,LEO
47973,M2-B,2021,95.11,-1.0,+,45.0,Active,0,LEO,New Zealand,Australia,Unknown,Unknown,Unknown,1 47973U 21023J   23222.31629978  .00011295  00000+0  62461-3 0  9993,2 47973  44.9976 176.8665 0010855 107.6058 252.6006 15.13978263105468,15.13978263,0.0010855,LEO
47977,STARLINK-2087,2021,95.59,260.0,+,53.05,Active,1,LEO,USA,USA,Commercial,Communications,Falcon,1 47977U 21024A   23222.09786564  .00003555  00000+0  25747-3 0  9994,2 47977  53.0523 238.0757 0001211  94.2700 265.8428 15.06395844132111,15.06395844,0.0001211,LEO
47978,STARLINK-1647,2021,95.59,260.0,+,53.05,Active,1,LEO,USA,USA,Commercial,Communications,Falcon,1 47978U 21024B   23222.11905895  .00002282  00000+0  17206-3 0  9995,2 47978  53.0532 247.9831 0001010  91.3614 268.7490 15.06393807131963,15.06393807,0.000101,LEO
47979,STARLINK-2325,2021,95.59,260.0,+,53.05,Active,1,LEO,USA,USA,Commercial,Communications,Falcon,1 47979U 21024C   23222.32223199  .00014706  00000+0  10031-2 0  9991,2 47979  53.0540 182.0778 0001343  85.5829 274.5314 15.06436360132912,15.0643636,0.0001343,LEO
47980,STARLINK-2312,2021,95.59,260.0,+,53.05,Active,1,LEO,USA,USA,Commercial,Communications,Falcon,1 47980U 21024D   23222.20983667  .00009397  00000+0  64852-3 0  9994,2 47980  53.0537 162.7003 0001643  97.3392 262.7784 15.06421734133173,15.06421734,0.0001643,LEO
47981,STARLINK-2303,2021,95.59,260.0,+,53.05,Active,1,LEO,USA,USA,Commercial,Communications,Falcon,1 47981U 21024E   23221.37817902  .00003993  00000+0  28682-3 0  9997,2 47981  53.0527 251.3074 0001011 102.5498 257.5604 15.06394283131855,15.06394283,0.0001011,LEO
47982,STARLINK-2317,2021,95.59,260.0,+,53.05,Active,1,LEO,USA,USA,Commercial,Communications,Falcon,1 47982U 21024F   23222.28767542  .00013035  00000+0  89173-3 0  9993,2 47982  53.0531 177.2235 0000542 148.5042 211.5979 15.06426297132968,15.06426297,5.42e-05,LEO
47985,STARLINK-2308,2021,95.59,260.0,+,53.05,Active,1,LEO,USA,USA,Commercial,Communications,Falcon,1 47985U 21024J   23221.62930555  .00005435  00000+0  38348-3 0  9992,2 47985  53.0533 185.3446 0001095 107.2241 252.8867 15.06400920132806,15.0640092,0.0001095,LEO
47989,STARLINK-2305,2021,95.59,260.0,+,53.05,Active,1,LEO,USA,USA,Commercial,Communications,Falcon,1 47989U 21024N   23222.21212038  .00015680  00000+0  10682-2 0  9994,2 47989  53.0531 157.5748 0001494  99.0500 261.0658 15.06435107133247,15.06435107,0.0001494,LEO
47990,STARLINK-2307,2021,95.59,260.0,+,53.05,Active,1,LEO,USA,USA,Commercial,Communications,Falcon,1 47990U 21024P   23222.23055045  .00015387  00000+0  10487-2 0  9998,2 47990  53.0528 157.4816 0000957  86.6561 273.4538 15.06432996133238,15.06432996,9.57e-05,LEO
47991,STARLINK-2279,2021,95.59,260.0,+,53.05,Active,1,LEO,USA,USA,Commercial,Communications,Falcon,1 47991U 21024Q   23222.24206746  .00015774  00000+0  10748-2 0  9996,2 47991  53.0528 172.4392 0001342 100.6493 259.4647 15.06424830133025,15.0642483,0.0001342,LEO
47992,STARLINK-2229,2021,95.59,260.0,+,53.05,Active,1,LEO,USA,USA,Commercial,Communications,Falcon,1 47992U 21024R   23221.26761703  .00013737  00000+0  93907-3 0  9993,2 47992  53.0528 171.8915 0001137  90.0590 270.0529 15.06410435132957,15.06410435,0.0001137,LEO
